NORAD_CAT_ID,OBJECT_NAME,OBJECT_TYPE,EPOCH,MEAN_MOTION,ECCENTRICITY,INCLINATION,RA_OF_ASC_NODE,ARG_OF_PERICENTER,MEAN_ANOMALY,BSTAR,MEAN_MOTION_DOT,MEAN_MOTION_DDOT,TLE_LINE0,TLE_LINE1,TLE_LINE2,SEMIMAJOR_AXIS,PERIOD,APOGEE,PERIGEE,DECAYED
52566.0,STARLINK-3938,PAYLOAD,2023-10-04 23:33:11,15.0885499,0.0001485,53.2153,154.7109,91.2944,268.8218,0.00049418,7.589e-05,0.0,0 STARLINK-3938,1 52566U 22051AK  23277.98138692  .00007589  00000-0  49418-3 0  9999,2 52566  53.2153 154.7109 0001485  91.2944 268.8218 15.08854990 77580,6917.835,95.437,540.727,538.672,0.0
52566.0,STARLINK-3938,PAYLOAD,2023-10-05 09:05:30,15.0884618,0.0001372,53.2159,152.9254,90.9221,269.1928,0.00019023,2.741e-05,0.0,0 STARLINK-3938,1 52566U 22051AK  23278.37882705  .00002741  00000-0  19023-3 0  9998,2 52566  53.2159 152.9254 0001372  90.9221 269.1928 15.08846180 77647,6917.861,95.437,540.676,538.777,0.0
52566.0,STARLINK-3938,PAYLOAD,2023-10-05 21:48:36,15.08836008,0.0001371,53.2161,150.5464,94.3709,265.744,-4.595e-05,-1.019e-05,0.0,0 STARLINK-3938,1 52566U 22051AK  23278.90875180 -.00001019  00000-0 -45950-4 0  9994,2 52566  53.2161 150.5464 0001371  94.3709 265.7440 15.08836008 77723,6917.893,95.438,540.706,538.809,0.0
52566.0,STARLINK-3938,PAYLOAD,2023-10-06 08:56:18,15.08836484,0.0001393,53.215,148.4664,85.5464,274.5687,6.6589e-05,7.72e-06,0.0,0 STARLINK-3938,1 52566U 22051AK  23279.37243322  .00000772  00000-0  66589-4 0  9997,2 52566  53.2150 148.4664 0001393  85.5464 274.5687 15.08836484 77722,6917.891,95.438,540.72,538.792,0.0
52566.0,STARLINK-3938,PAYLOAD,2023-10-06 21:39:23,15.088364,0.0001447,53.2153,146.0865,88.8947,271.221,0.00017534,2.503e-05,0.0,0 STARLINK-3938,1 52566U 22051AK  23279.90235726  .00002503  00000-0  17534-3 0  9994,2 52566  53.2153 146.0865 0001447  88.8947 271.2210 15.08836400 77807,6917.891,95.438,540.757,538.755,0.0
52566.0,STARLINK-3938,PAYLOAD,2023-10-07 00:50:09,15.08840838,0.0001582,53.2159,145.4913,88.1935,271.9239,0.00031563,4.739e-05,0.0,0 STARLINK-3938,1 52566U 22051AK  23280.03483680  .00004739  00000-0  31563-3 0  9995,2 52566  53.2159 145.4913 0001582  88.1935 271.9239 15.08840838 77897,6917.878,95.438,540.837,538.648,0.0
52566.0,STARLINK-3938,PAYLOAD,2023-10-07 21:30:10,15.0885506,0.0001641,53.2156,141.6234,95.0719,265.046,0.00056097,8.655e-05,0.0,0 STARLINK-3938,1 52566U 22051AK  23280.89595390  .00008655  00000-0  56097-3 0  9991,2 52566  53.2156 141.6234 0001641  95.0719 265.0460 15.08855060 77951,6917.834,95.437,540.835,538.564,0.0
52566.0,STARLINK-3938,PAYLOAD,2023-10-08 00:40:56,15.08857331,0.0001668,53.2155,141.0291,93.9929,266.1253,0.00066511,0.00010318,0.0,0 STARLINK-3938,1 52566U 22051AK  23281.02843365  .00010318  00000-0  66511-3 0  9996,2 52566  53.2155 141.0291 0001668  93.9929 266.1253 15.08857331 77973,6917.827,95.436,540.846,538.539,0.0
52566.0,STARLINK-3938,PAYLOAD,2023-10-08 18:10:10,15.08851204,0.0001656,53.2151,137.756,111.7029,248.414,0.00022632,3.317e-05,0.0,0 STARLINK-3938,1 52566U 22051AK  23281.75707097  .00003317  00000-0  22632-3 0  9994,2 52566  53.2151 137.7560 0001656 111.7029 248.4140 15.08851204 78159,6917.846,95.437,540.857,538.566,0.0
52566.0,STARLINK-3938,PAYLOAD,2023-10-08 21:20:57,15.08855695,0.0001305,53.2158,137.1653,86.5746,273.5396,0.00040147,6.11e-05,0.0,0 STARLINK-3938,1 52566U 22051AK  23281.88954994  .00006110  00000-0  40147-3 0  9993,2 52566  53.2158 137.1653 0001305  86.5746 273.5396 15.08855695 78104,6917.832,95.437,540.6,538.795,0.0
52566.0,STARLINK-3938,PAYLOAD,2023-10-09 06:53:15,15.08846467,0.0001251,53.2158,135.3815,85.091,275.0225,9.1652e-05,1.171e-05,0.0,0 STARLINK-3938,1 52566U 22051AK  23282.28699042  .00001171  00000-0  91652-4 0  9998,2 52566  53.2158 135.3815 0001251  85.0910 275.0225 15.08846467 78230,6917.861,95.437,540.591,538.86,0.0
52566.0,STARLINK-3938,PAYLOAD,2023-10-09 21:11:44,15.08837403,0.0001434,53.2156,132.7038,87.0199,273.0957,-7.005e-05,-1.403e-05,0.0,0 STARLINK-3938,1 52566U 22051AK  23282.88315446 -.00001403  00000-0 -70050-4 0  9996,2 52566  53.2156 132.7038 0001434  87.0199 273.0957 15.08837403 78320,6917.888,95.438,540.745,538.761,0.0
52566.0,STARLINK-3938,PAYLOAD,2023-10-10 13:05:35,15.08843228,0.0001297,53.2158,129.732,77.3782,282.7355,0.00021248,3.096e-05,0.0,0 STARLINK-3938,1 52566U 22051AK  23283.54555536  .00003096  00000-0  21248-3 0  9998,2 52566  53.2158 129.7320 0001297  77.3782 282.7355 15.08843228 78353,6917.871,95.437,540.633,538.838,0.0
52566.0,STARLINK-3938,PAYLOAD,2023-10-10 19:27:08,15.08850344,0.0001227,53.2155,128.5432,85.7975,274.3158,0.00060338,9.331e-05,0.0,0 STARLINK-3938,1 52566U 22051AK  23283.81051384  .00009331  00000-0  60338-3 0  9991,2 52566  53.2155 128.5432 0001227  85.7975 274.3158 15.08850344 78390,6917.849,95.437,540.563,538.865,0.0
52566.0,STARLINK-3938,PAYLOAD,2023-10-11 06:34:50,15.08840935,9.85e-05,53.2154,126.4611,87.6795,272.431,4.3391e-05,4.03e-06,0.0,0 STARLINK-3938,1 52566U 22051AK  23284.27419309  .00000403  00000-0  43391-4 0  9999,2 52566  53.2154 126.4611 0000985  87.6795 272.4310 15.08840935 78536,6917.878,95.437,540.424,539.061,0.0
52566.0,STARLINK-3938,PAYLOAD,2023-10-11 20:53:19,15.08832633,0.0001265,53.2147,123.7858,79.4498,280.6637,-2.301e-06,-3.24e-06,0.0,0 STARLINK-3938,1 52566U 22051AK  23284.87036049 -.00000324  00000-0 -23010-5 0  9992,2 52566  53.2147 123.7858 0001265  79.4498 280.6637 15.08832633 78621,6917.903,95.438,540.643,538.893,0.0
52566.0,STARLINK-3938,PAYLOAD,2023-10-12 06:25:37,15.0884013,0.0001254,53.2144,122.0018,85.6245,274.489,0.00019176,2.765e-05,0.0,0 STARLINK-3938,1 52566U 22051AK  23285.26779986  .00002765  00000-0  19176-3 0  9995,2 52566  53.2144 122.0018 0001254  85.6245 274.4890 15.08840130 78617,6917.88,95.438,540.612,538.877,0.0
52566.0,STARLINK-3938,PAYLOAD,2023-10-12 19:08:42,15.08851124,0.0001223,53.214,119.6226,85.8144,274.2988,0.00044044,6.731e-05,0.0,0 STARLINK-3938,1 52566U 22051AK  23285.79771636  .00006731  00000-0  44044-3 0  9996,2 52566  53.2140 119.6226 0001223  85.8144 274.2988 15.08851124 78769,6917.846,95.437,540.557,538.865,0.0
52566.0,STARLINK-3938,PAYLOAD,2023-10-12 20:44:05,15.08857064,0.0001233,53.2143,119.3238,84.5412,275.5721,0.00058825,9.091e-05,0.0,0 STARLINK-3938,1 52566U 22051AK  23285.86395474  .00009091  00000-0  58825-3 0  9990,2 52566  53.2143 119.3238 0001233  84.5412 275.5721 15.08857064 78709,6917.828,95.436,540.546,538.84,0.0
52566.0,STARLINK-3938,PAYLOAD,2023-10-13 06:16:24,15.08847565,0.0001309,53.2155,117.5385,80.3322,279.7818,0.00029197,4.363e-05,0.0,0 STARLINK-3938,1 52566U 22051AK  23286.26139719  .00004363  00000-0  29197-3 0  9990,2 52566  53.2155 117.5385 0001309  80.3322 279.7818 15.08847565 78835,6917.857,95.437,540.628,538.817,0.0
52566.0,STARLINK-3938,PAYLOAD,2023-10-13 18:59:29,15.08847183,0.0001351,53.2146,115.1582,88.2856,271.8291,0.00028024,4.176e-05,0.0,0 STARLINK-3938,1 52566U 22051AK  23286.79131736  .00004176  00000-0  28024-3 0  9999,2 52566  53.2146 115.1582 0001351  88.2856 271.8291 15.08847183 78849,6917.858,95.437,540.658,538.789,0.0
52566.0,STARLINK-3938,PAYLOAD,2023-10-14 06:07:11,15.08845639,0.0001319,53.2143,113.0774,78.7159,281.3982,0.00030789,4.616e-05,0.0,0 STARLINK-3938,1 52566U 22051AK  23287.25499753  .00004616  00000-0  30789-3 0  9997,2 52566  53.2143 113.0774 0001319  78.7159 281.3982 15.08845639 78982,6917.863,95.437,540.641,538.816,0.0
52566.0,STARLINK-3938,PAYLOAD,2023-10-14 18:50:17,15.08842124,0.000138,53.2149,110.6976,83.2744,276.8405,0.00015628,2.2e-05,0.0,0 STARLINK-3938,1 52566U 22051AK  23287.78491909  .00002200  00000-0  15628-3 0  9992,2 52566  53.2149 110.6976 0001380  83.2744 276.8405 15.08842124 79069,6917.874,95.437,540.694,538.784,0.0
52566.0,STARLINK-3938,PAYLOAD,2023-10-14 22:01:03,15.0884511,0.0001368,53.2151,110.1024,86.1604,273.9544,0.00014841,2.075e-05,0.0,0 STARLINK-3938,1 52566U 22051AK  23287.91739789  .00002075  00000-0  14841-3 0  9994,2 52566  53.2151 110.1024 0001368  86.1604 273.9544 15.08845110 79019,6917.865,95.437,540.676,538.783,0.0
52566.0,STARLINK-3938,PAYLOAD,2023-10-15 12:19:31,15.08839618,0.0001351,53.2151,107.4264,89.2622,270.8525,0.0001483,2.073e-05,0.0,0 STARLINK-3938,1 52566U 22051AK  23288.51356085  .00002073  00000-0  14830-3 0  9991,2 52566  53.2151 107.4264 0001351  89.2622 270.8525 15.08839618 79101,6917.882,95.438,540.681,538.812,0.0
52566.0,STARLINK-3938,PAYLOAD,2023-10-15 18:41:04,15.08843902,0.0001296,53.2149,106.2388,80.5885,279.5254,0.0002176,3.177e-05,0.0,0 STARLINK-3938,1 52566U 22051AK  23288.77851969  .00003177  00000-0  21760-3 0  9996,2 52566  53.2149 106.2388 0001296  80.5885 279.5254 15.08843902 79145,6917.868,95.437,540.63,538.837,0.0
52566.0,STARLINK-3938,PAYLOAD,2023-10-16 12:10:18,15.08840718,0.0001362,53.2145,102.9674,83.5181,276.5966,0.00011761,1.584e-05,0.0,0 STARLINK-3938,1 52566U 22051AK  23289.50716079  .00001584  00000-0  11761-3 0  9990,2 52566  53.2145 102.9674 0001362  83.5181 276.5966 15.08840718 79327,6917.878,95.438,540.685,538.801,0.0
52566.0,STARLINK-3938,PAYLOAD,2023-10-16 16:56:28,15.08840117,0.0001393,53.2149,102.0755,83.9603,276.1548,0.00015799,2.227e-05,0.0,0 STARLINK-3938,1 52566U 22051AK  23289.70588161  .00002227  00000-0  15799-3 0  9991,2 52566  53.2149 102.0755 0001393  83.9603 276.1548 15.08840117 79289,6917.88,95.438,540.709,538.781,0.0
52566.0,STARLINK-3938,PAYLOAD,2023-10-17 10:25:42,15.08840485,0.000171,53.2153,98.8046,75.1394,284.9787,0.00010617,1.402e-05,0.0,0 STARLINK-3938,1 52566U 22051AK  23290.43452166  .00001402  00000-0  10617-3 0  9996,2 52566  53.2153  98.8046 0001710  75.1394 284.9787 15.08840485 79394,6917.879,95.438,540.927,538.561,0.0
52566.0,STARLINK-3938,PAYLOAD,2023-10-17 18:22:38,15.08843862,0.0001685,53.2161,97.3176,85.0305,275.088,9.335e-05,1.198e-05,0.0,0 STARLINK-3938,1 52566U 22051AK  23290.76571968  .00001198  00000-0  93350-4 0  9992,2 52566  53.2161  97.3176 0001685  85.0305 275.0880 15.08843862 79447,6917.869,95.437,540.899,538.568,0.0
